<?xml version="1.0" encoding="UTF-8"?>
<gpx version="1.1" creator="fiskoye" xmlns="http://www.topografix.com/GPX/1/1">
  <wpt lat="60.24181" lon="11.74514"><name>1 Hauggard · km 0.2 (S-bredden)</name><desc>Gjedde 100, Abbor 95, Mort 90. Lett: bilvei 118 m unna (track). Parkering 644 m unna.</desc></wpt>
  <wpt lat="60.23058" lon="11.66842"><name>2 Lukmoen · km 7.5 (V-bredden)</name><desc>Gjedde 100, Mort 100, Brasme 100. Lett: bilvei 91 m unna (service).</desc></wpt>
  <wpt lat="60.19830" lon="11.58056"><name>3 Sætra · km 14.3 (N-bredden)</name><desc>Gjedde 100, Abbor 100, Brasme 100. Lett: bilvei 53 m unna (service). Sti langs vannet.</desc></wpt>
  <wpt lat="60.18890" lon="11.57195"><name>4 Oppåkerbekken · km 15.4 (SØ-bredden)</name><desc>Gjedde 100, Abbor 100, Brasme 100. Lett: bilvei 116 m unna (track).</desc></wpt>
  <wpt lat="60.25495" lon="11.69358"><name>5 Tanumkollen · km 3.5 (SV-bredden)</name><desc>Mort 100, Gjedde 99, Brasme 94. Lett: bilvei 95 m unna (Strandvegen). Parkering 466 m unna.</desc></wpt>
  <wpt lat="60.18782" lon="11.56402"><name>6 Semingsrud · km 15.8 (NV-bredden)</name><desc>Abbor 100, Mort 100, Brasme 100. Lett: bilvei 51 m unna (service). Parkering 1370 m unna.</desc></wpt>
  <wpt lat="60.24583" lon="11.72381"><name>7 Snekkermoen · km 1.5 (NØ-bredden)</name><desc>Mort 100, Brasme 94, Sik 90. Lett: bilvei 100 m unna (service). Parkering 1057 m unna.</desc></wpt>
  <wpt lat="60.25142" lon="11.67584"><name>8 Korsmoenga · km 5.1 (SØ-bredden)</name><desc>Abbor 100, Brasme 97, Lake 96. Lett: bilvei 33 m unna (track). Parkering 242 m unna.</desc></wpt>
  <wpt lat="60.19670" lon="11.58174"><name>9 Staksrud · km 14.3 (S-bredden)</name><desc>Abbor 100, Brasme 99, Sik 97. Kort gange: bilvei 217 m unna.</desc></wpt>
  <wpt lat="60.25639" lon="11.68198"><name>10 Skarnes · km 4.4 (SØ-bredden)</name><desc>Ørret 100, Harr 100, Sik 67. Lett: bilvei 45 m unna (Strandvegen). Parkering 154 m unna. Sti langs vannet.</desc></wpt>
  <wpt lat="60.21059" lon="11.64307"><name>11 Sundvoll · km 10.5 (SØ-bredden)</name><desc>Ørret 100, Harr 100, Vederbuk 68. Lett: bilvei 50 m unna (service).</desc></wpt>
  <wpt lat="60.21268" lon="11.63931"><name>12 Sundvoll · km 10.5 (NV-bredden)</name><desc>Harr 100, Ørret 99, Sik 71. Lett: bilvei 42 m unna (service).</desc></wpt>
  <wpt lat="60.25605" lon="11.68065"><name>13 Skarnes · km 4.5 (SØ-bredden)</name><desc>Ørret 100, Harr 100, Vederbuk 91. Lett: bilvei 23 m unna (Glomvegen). Parkering 107 m unna. Sti langs vannet.</desc></wpt>
  <wpt lat="60.22415" lon="11.67292"><name>14 Lilleset · km 8.2 (Ø-bredden)</name><desc>Sik 100, Lake 100, Gjørs 100. Lett: bilvei 11 m unna (Norddisivegen).</desc></wpt>
  <wpt lat="60.20957" lon="11.62605"><name>15 Bruneset · km 11.4 (N-bredden)</name><desc>Sik 100, Lake 100, Gjørs 99. Kort gange: bilvei 220 m unna.</desc></wpt>
  <wpt lat="60.19129" lon="11.57557"><name>16 Glommenstrand · km 15.1 (SØ-bredden)</name><desc>Sik 100, Lake 100, Gjørs 100. Lett: bilvei 81 m unna (track).</desc></wpt>
  <wpt lat="60.18726" lon="11.56791"><name>17 Semingsrud · km 15.7 (SØ-bredden)</name><desc>Sik 100, Lake 100, Gjørs 98. Lett: bilvei 46 m unna (track).</desc></wpt>
  <wpt lat="60.25222" lon="11.67633"><name>18 Korsmoenga · km 5.0 (SØ-bredden)</name><desc>Lake 100, Gjørs 100, Sik 100. Lett: bilvei 46 m unna (track). Parkering 170 m unna.</desc></wpt>
  <wpt lat="60.19402" lon="11.57702"><name>19 Staksrud · km 14.8 (Ø-bredden)</name><desc>Gjørs 100, Sik 100, Lake 100. Kort gange: bilvei 220 m unna.</desc></wpt>
  <wpt lat="60.21083" lon="11.63410"><name>20 Ullern · km 10.9 (N-bredden)</name><desc>Gjørs 100, Sik 100, Lake 100. Lett: bilvei 49 m unna (service).</desc></wpt>
  <wpt lat="60.20289" lon="11.59854"><name>21 Dysterudmoen · km 13.1 (SØ-bredden)</name><desc>Sik 100, Lake 100, Gjørs 99. Kort gange: bilvei 268 m unna.</desc></wpt>
  <wpt lat="60.24196" lon="11.67031"><name>22 Sandnesmoen · km 6.2 (V-bredden)</name><desc>Sik 100, Lake 87, Ørret 76. Lett: bilvei 128 m unna (Oslovegen). Parkering 619 m unna.</desc></wpt>
  <wpt lat="60.23063" lon="11.67313"><name>23 Lukmoen · km 7.5 (Ø-bredden)</name><desc>Sik 100, Lake 87, Ørret 86. Lett: bilvei 92 m unna (service).</desc></wpt>
  <wpt lat="60.20363" lon="11.60532"><name>24 Gjersøyen · km 12.7 (S-bredden)</name><desc>Sik 100, Lake 91, Ørret 76. Lett: bilvei 97 m unna (unclassified).</desc></wpt>
  <wpt lat="60.20728" lon="11.62702"><name>25 Glomma km 11.4 (S-bredden)</name><desc>Vederbuk 100, Sik 99, Lake 97. Lett: bilvei 22 m unna (Arnold Rørholts veg).</desc></wpt>
  <wpt lat="60.19044" lon="11.57462"><name>26 Glommenstrand · km 15.2 (SØ-bredden)</name><desc>Gjørs 100, Sik 100, Lake 100. Lett: bilvei 75 m unna (track).</desc></wpt>
  <wpt lat="60.20478" lon="11.61022"><name>27 Gjersøyen · km 12.4 (S-bredden)</name><desc>Mort 99, Abbor 96, Brasme 94. Lett: bilvei 113 m unna (unclassified).</desc></wpt>
  <wpt lat="60.24464" lon="11.74057"><name>28 Øvre Krybelsrud · km 0.5 (N-bredden)</name><desc>Ørret 99, Harr 96, Vederbuk 94. Kort gange: bilvei 187 m unna. Parkering 333 m unna.</desc></wpt>
  <wpt lat="60.24249" lon="11.73496"><name>29 Krybelsrud · km 0.8 (S-bredden)</name><desc>Ørret 99, Harr 95, Vederbuk 94. Kort gange: bilvei 172 m unna. Parkering 697 m unna.</desc></wpt>
  <wpt lat="60.24438" lon="11.73693"><name>30 Øvre Krybelsrud · km 0.7 (N-bredden)</name><desc>Ørret 99, Harr 97, Lake 91. Lett: bilvei 105 m unna (Snekkermovegen). Parkering 466 m unna.</desc></wpt>
  <wpt lat="60.24758" lon="11.67053"><name>31 Snekkermoen · km 5.6 (V-bredden)</name><desc>Sik 98, Mort 93, Brasme 92. Lett: bilvei 15 m unna (service). Parkering 368 m unna.</desc></wpt>
  <wpt lat="60.19786" lon="11.59086"><name>32 Dysterud · km 13.8 (SØ-bredden)</name><desc>Sik 98, Lake 98, Gjørs 98. Lett: bilvei 24 m unna (track).</desc></wpt>
  <wpt lat="60.22040" lon="11.66908"><name>33 Lillesetbrua · km 8.6 (SØ-bredden)</name><desc>Sik 98, Lake 97, Vederbuk 97. Lett: bilvei 20 m unna (Norddisivegen).</desc></wpt>
  <wpt lat="60.24712" lon="11.67372"><name>34 Snekkermoen · km 5.6 (Ø-bredden)</name><desc>Sik 97, Lake 97, Gjørs 96. Lett: bilvei 22 m unna (track). Parkering 268 m unna. Sti langs vannet.</desc></wpt>
  <wpt lat="60.24232" lon="11.74039"><name>35 Øvre Krybelsrud · km 0.5 (S-bredden)</name><desc>Vederbuk 97, Ørret 95, Harr 90. Lett: bilvei 116 m unna (track). Parkering 585 m unna.</desc></wpt>
  <wpt lat="60.21985" lon="11.66673"><name>36 Taugbøl · km 8.7 (S-bredden)</name><desc>Sik 97, Lake 96, Gjørs 95. Lett: bilvei 28 m unna (Norddisivegen).</desc></wpt>
  <wpt lat="60.24314" lon="11.67301"><name>37 Sandnesmoen · km 6.1 (Ø-bredden)</name><desc>Mort 96, Brasme 88, Gjedde 83. Lett: bilvei 14 m unna (track). Parkering 440 m unna.</desc></wpt>
  <wpt lat="60.24460" lon="11.74256"><name>38 Øvre Krybelsrud · km 0.4 (N-bredden)</name><desc>Ørret 95, Harr 92, Vederbuk 90. Kort gange: bilvei 187 m unna. Parkering 318 m unna.</desc></wpt>
  <wpt lat="60.20899" lon="11.63790"><name>39 Disenå · km 10.8 (SØ-bredden)</name><desc>Ørret 94, Harr 91, Lake 85. Lett: bilvei 60 m unna (Arnold Rørholts veg).</desc></wpt>
  <wpt lat="60.24483" lon="11.66874"><name>40 Snekkermoen · km 5.9 (V-bredden)</name><desc>Mort 94, Brasme 90, Gjedde 83. Lett: bilvei 48 m unna (Oslovegen). Parkering 639 m unna.</desc></wpt>
  <wpt lat="60.24237" lon="11.73860"><name>41 Øvre Krybelsrud · km 0.6 (S-bredden)</name><desc>Vederbuk 93, Ørret 92, Gjedde 90. Lett: bilvei 70 m unna (track). Parkering 609 m unna.</desc></wpt>
  <wpt lat="60.23857" lon="11.67206"><name>42 Huken · km 6.6 (V-bredden)</name><desc>Ørret 93, Harr 88, Lake 46. Lett: bilvei 82 m unna (service). Parkering 760 m unna.</desc></wpt>
  <wpt lat="60.24388" lon="11.71799"><name>43 Lindal · km 1.7 (SV-bredden)</name><desc>Mort 93, Brasme 88, Gjedde 82. Lett: bilvei 120 m unna (Strandvegen). Parkering 1421 m unna.</desc></wpt>
  <wpt lat="60.24376" lon="11.66887"><name>44 Sandnesmoen · km 6.0 (V-bredden)</name><desc>Brasme 93, Mort 80, Sik 78. Lett: bilvei 17 m unna (service). Parkering 662 m unna.</desc></wpt>
  <wpt lat="60.24378" lon="11.74816"><name>45 Ellefsrud · km 0.1 (N-bredden)</name><desc>Ørret 92, Harr 88, Vederbuk 59. Kort gange: bilvei 286 m unna. Parkering 512 m unna.</desc></wpt>
  <wpt lat="60.21359" lon="11.64796"><name>46 Disen · km 10.1 (SØ-bredden)</name><desc>Ørret 92, Harr 88, Vederbuk 59. Kort gange: bilvei 186 m unna.</desc></wpt>
  <wpt lat="60.21750" lon="11.65423"><name>47 Meldisen · km 9.5 (SØ-bredden)</name><desc>Ørret 92, Lake 90, Harr 86. Kort gange: bilvei 223 m unna.</desc></wpt>
  <wpt lat="60.19738" lon="11.58890"><name>48 Dysterud · km 13.9 (S-bredden)</name><desc>Brasme 92, Abbor 87, Gjedde 84. Lett: bilvei 31 m unna (track).</desc></wpt>
  <wpt lat="60.25587" lon="11.69082"><name>49 Tanumkollen · km 3.7 (SV-bredden)</name><desc>Ørret 91, Harr 87, Lake 82. Lett: bilvei 36 m unna (Strandvegen). Parkering 404 m unna.</desc></wpt>
  <wpt lat="60.23315" lon="11.67275"><name>50 Løken · km 7.2 (Ø-bredden)</name><desc>Ørret 90, Harr 82, Lake 45. Lett: bilvei 129 m unna (service). Parkering 1271 m unna.</desc></wpt>
  <wpt lat="60.23231" lon="11.67273"><name>51 Lukmoen · km 7.3 (Ø-bredden)</name><desc>Harr 90, Ørret 87, Vederbuk 78. Lett: bilvei 64 m unna (service). Parkering 1359 m unna.</desc></wpt>
  <wpt lat="60.22063" lon="11.65668"><name>52 Kremmerstuen · km 9.2 (NV-bredden)</name><desc>Lake 90, Harr 89, Ørret 88. Kort gange: bilvei 333 m unna.</desc></wpt>
  <wpt lat="60.21970" lon="11.66124"><name>53 Norddisen · km 9.0 (S-bredden)</name><desc>Abbor 89, Gjedde 86, Ørret 86. Kort gange: bilvei 159 m unna.</desc></wpt>
  <wpt lat="60.21988" lon="11.66288"><name>54 Norddisen · km 8.9 (S-bredden)</name><desc>Harr 88, Ørret 88, Lake 80. Lett: bilvei 132 m unna (Norddisivegen).</desc></wpt>
  <wpt lat="60.25665" lon="11.68663"><name>55 Skarnes · km 4.0 (S-bredden)</name><desc>Gjedde 85, Mort 80, Vederbuk 78. Lett: bilvei 80 m unna (service). Parkering 330 m unna.</desc></wpt>
</gpx>