<?xml version="1.0" encoding="UTF-8"?>
<kml xmlns="http://www.opengis.net/kml/2.2"><Document>
<name>FISKEØYE – Glomma ved Skarnes</name>
<Placemark><name>1 Hauggard · km 0.2</name><description>Gjedde 100, Abbor 95, Mort 90</description><Point><coordinates>11.74514,60.24181,0</coordinates></Point></Placemark>
<Placemark><name>2 Lukmoen · km 7.5</name><description>Gjedde 100, Mort 100, Brasme 100</description><Point><coordinates>11.66842,60.23058,0</coordinates></Point></Placemark>
<Placemark><name>3 Sætra · km 14.3</name><description>Gjedde 100, Abbor 100, Brasme 100</description><Point><coordinates>11.58056,60.19830,0</coordinates></Point></Placemark>
<Placemark><name>4 Oppåkerbekken · km 15.4</name><description>Gjedde 100, Abbor 100, Brasme 100</description><Point><coordinates>11.57195,60.18890,0</coordinates></Point></Placemark>
<Placemark><name>5 Tanumkollen · km 3.5</name><description>Mort 100, Gjedde 99, Brasme 94</description><Point><coordinates>11.69358,60.25495,0</coordinates></Point></Placemark>
<Placemark><name>6 Semingsrud · km 15.8</name><description>Abbor 100, Mort 100, Brasme 100</description><Point><coordinates>11.56402,60.18782,0</coordinates></Point></Placemark>
<Placemark><name>7 Snekkermoen · km 1.5</name><description>Mort 100, Brasme 94, Sik 90</description><Point><coordinates>11.72381,60.24583,0</coordinates></Point></Placemark>
<Placemark><name>8 Korsmoenga · km 5.1</name><description>Abbor 100, Brasme 97, Lake 96</description><Point><coordinates>11.67584,60.25142,0</coordinates></Point></Placemark>
<Placemark><name>9 Staksrud · km 14.3</name><description>Abbor 100, Brasme 99, Sik 97</description><Point><coordinates>11.58174,60.19670,0</coordinates></Point></Placemark>
<Placemark><name>10 Skarnes · km 4.4</name><description>Ørret 100, Harr 100, Sik 67</description><Point><coordinates>11.68198,60.25639,0</coordinates></Point></Placemark>
<Placemark><name>11 Sundvoll · km 10.5</name><description>Ørret 100, Harr 100, Vederbuk 68</description><Point><coordinates>11.64307,60.21059,0</coordinates></Point></Placemark>
<Placemark><name>12 Sundvoll · km 10.5</name><description>Harr 100, Ørret 99, Sik 71</description><Point><coordinates>11.63931,60.21268,0</coordinates></Point></Placemark>
<Placemark><name>13 Skarnes · km 4.5</name><description>Ørret 100, Harr 100, Vederbuk 91</description><Point><coordinates>11.68065,60.25605,0</coordinates></Point></Placemark>
<Placemark><name>14 Lilleset · km 8.2</name><description>Sik 100, Lake 100, Gjørs 100</description><Point><coordinates>11.67292,60.22415,0</coordinates></Point></Placemark>
<Placemark><name>15 Bruneset · km 11.4</name><description>Sik 100, Lake 100, Gjørs 99</description><Point><coordinates>11.62605,60.20957,0</coordinates></Point></Placemark>
<Placemark><name>16 Glommenstrand · km 15.1</name><description>Sik 100, Lake 100, Gjørs 100</description><Point><coordinates>11.57557,60.19129,0</coordinates></Point></Placemark>
<Placemark><name>17 Semingsrud · km 15.7</name><description>Sik 100, Lake 100, Gjørs 98</description><Point><coordinates>11.56791,60.18726,0</coordinates></Point></Placemark>
<Placemark><name>18 Korsmoenga · km 5.0</name><description>Lake 100, Gjørs 100, Sik 100</description><Point><coordinates>11.67633,60.25222,0</coordinates></Point></Placemark>
<Placemark><name>19 Staksrud · km 14.8</name><description>Gjørs 100, Sik 100, Lake 100</description><Point><coordinates>11.57702,60.19402,0</coordinates></Point></Placemark>
<Placemark><name>20 Ullern · km 10.9</name><description>Gjørs 100, Sik 100, Lake 100</description><Point><coordinates>11.63410,60.21083,0</coordinates></Point></Placemark>
<Placemark><name>21 Dysterudmoen · km 13.1</name><description>Sik 100, Lake 100, Gjørs 99</description><Point><coordinates>11.59854,60.20289,0</coordinates></Point></Placemark>
<Placemark><name>22 Sandnesmoen · km 6.2</name><description>Sik 100, Lake 87, Ørret 76</description><Point><coordinates>11.67031,60.24196,0</coordinates></Point></Placemark>
<Placemark><name>23 Lukmoen · km 7.5</name><description>Sik 100, Lake 87, Ørret 86</description><Point><coordinates>11.67313,60.23063,0</coordinates></Point></Placemark>
<Placemark><name>24 Gjersøyen · km 12.7</name><description>Sik 100, Lake 91, Ørret 76</description><Point><coordinates>11.60532,60.20363,0</coordinates></Point></Placemark>
<Placemark><name>25 Glomma km 11.4</name><description>Vederbuk 100, Sik 99, Lake 97</description><Point><coordinates>11.62702,60.20728,0</coordinates></Point></Placemark>
<Placemark><name>26 Glommenstrand · km 15.2</name><description>Gjørs 100, Sik 100, Lake 100</description><Point><coordinates>11.57462,60.19044,0</coordinates></Point></Placemark>
<Placemark><name>27 Gjersøyen · km 12.4</name><description>Mort 99, Abbor 96, Brasme 94</description><Point><coordinates>11.61022,60.20478,0</coordinates></Point></Placemark>
<Placemark><name>28 Øvre Krybelsrud · km 0.5</name><description>Ørret 99, Harr 96, Vederbuk 94</description><Point><coordinates>11.74057,60.24464,0</coordinates></Point></Placemark>
<Placemark><name>29 Krybelsrud · km 0.8</name><description>Ørret 99, Harr 95, Vederbuk 94</description><Point><coordinates>11.73496,60.24249,0</coordinates></Point></Placemark>
<Placemark><name>30 Øvre Krybelsrud · km 0.7</name><description>Ørret 99, Harr 97, Lake 91</description><Point><coordinates>11.73693,60.24438,0</coordinates></Point></Placemark>
<Placemark><name>31 Snekkermoen · km 5.6</name><description>Sik 98, Mort 93, Brasme 92</description><Point><coordinates>11.67053,60.24758,0</coordinates></Point></Placemark>
<Placemark><name>32 Dysterud · km 13.8</name><description>Sik 98, Lake 98, Gjørs 98</description><Point><coordinates>11.59086,60.19786,0</coordinates></Point></Placemark>
<Placemark><name>33 Lillesetbrua · km 8.6</name><description>Sik 98, Lake 97, Vederbuk 97</description><Point><coordinates>11.66908,60.22040,0</coordinates></Point></Placemark>
<Placemark><name>34 Snekkermoen · km 5.6</name><description>Sik 97, Lake 97, Gjørs 96</description><Point><coordinates>11.67372,60.24712,0</coordinates></Point></Placemark>
<Placemark><name>35 Øvre Krybelsrud · km 0.5</name><description>Vederbuk 97, Ørret 95, Harr 90</description><Point><coordinates>11.74039,60.24232,0</coordinates></Point></Placemark>
<Placemark><name>36 Taugbøl · km 8.7</name><description>Sik 97, Lake 96, Gjørs 95</description><Point><coordinates>11.66673,60.21985,0</coordinates></Point></Placemark>
<Placemark><name>37 Sandnesmoen · km 6.1</name><description>Mort 96, Brasme 88, Gjedde 83</description><Point><coordinates>11.67301,60.24314,0</coordinates></Point></Placemark>
<Placemark><name>38 Øvre Krybelsrud · km 0.4</name><description>Ørret 95, Harr 92, Vederbuk 90</description><Point><coordinates>11.74256,60.24460,0</coordinates></Point></Placemark>
<Placemark><name>39 Disenå · km 10.8</name><description>Ørret 94, Harr 91, Lake 85</description><Point><coordinates>11.63790,60.20899,0</coordinates></Point></Placemark>
<Placemark><name>40 Snekkermoen · km 5.9</name><description>Mort 94, Brasme 90, Gjedde 83</description><Point><coordinates>11.66874,60.24483,0</coordinates></Point></Placemark>
<Placemark><name>41 Øvre Krybelsrud · km 0.6</name><description>Vederbuk 93, Ørret 92, Gjedde 90</description><Point><coordinates>11.73860,60.24237,0</coordinates></Point></Placemark>
<Placemark><name>42 Huken · km 6.6</name><description>Ørret 93, Harr 88, Lake 46</description><Point><coordinates>11.67206,60.23857,0</coordinates></Point></Placemark>
<Placemark><name>43 Lindal · km 1.7</name><description>Mort 93, Brasme 88, Gjedde 82</description><Point><coordinates>11.71799,60.24388,0</coordinates></Point></Placemark>
<Placemark><name>44 Sandnesmoen · km 6.0</name><description>Brasme 93, Mort 80, Sik 78</description><Point><coordinates>11.66887,60.24376,0</coordinates></Point></Placemark>
<Placemark><name>45 Ellefsrud · km 0.1</name><description>Ørret 92, Harr 88, Vederbuk 59</description><Point><coordinates>11.74816,60.24378,0</coordinates></Point></Placemark>
<Placemark><name>46 Disen · km 10.1</name><description>Ørret 92, Harr 88, Vederbuk 59</description><Point><coordinates>11.64796,60.21359,0</coordinates></Point></Placemark>
<Placemark><name>47 Meldisen · km 9.5</name><description>Ørret 92, Lake 90, Harr 86</description><Point><coordinates>11.65423,60.21750,0</coordinates></Point></Placemark>
<Placemark><name>48 Dysterud · km 13.9</name><description>Brasme 92, Abbor 87, Gjedde 84</description><Point><coordinates>11.58890,60.19738,0</coordinates></Point></Placemark>
<Placemark><name>49 Tanumkollen · km 3.7</name><description>Ørret 91, Harr 87, Lake 82</description><Point><coordinates>11.69082,60.25587,0</coordinates></Point></Placemark>
<Placemark><name>50 Løken · km 7.2</name><description>Ørret 90, Harr 82, Lake 45</description><Point><coordinates>11.67275,60.23315,0</coordinates></Point></Placemark>
<Placemark><name>51 Lukmoen · km 7.3</name><description>Harr 90, Ørret 87, Vederbuk 78</description><Point><coordinates>11.67273,60.23231,0</coordinates></Point></Placemark>
<Placemark><name>52 Kremmerstuen · km 9.2</name><description>Lake 90, Harr 89, Ørret 88</description><Point><coordinates>11.65668,60.22063,0</coordinates></Point></Placemark>
<Placemark><name>53 Norddisen · km 9.0</name><description>Abbor 89, Gjedde 86, Ørret 86</description><Point><coordinates>11.66124,60.21970,0</coordinates></Point></Placemark>
<Placemark><name>54 Norddisen · km 8.9</name><description>Harr 88, Ørret 88, Lake 80</description><Point><coordinates>11.66288,60.21988,0</coordinates></Point></Placemark>
<Placemark><name>55 Skarnes · km 4.0</name><description>Gjedde 85, Mort 80, Vederbuk 78</description><Point><coordinates>11.68663,60.25665,0</coordinates></Point></Placemark>
</Document></kml>